COSMOS 2151             
1 21422U 91042A   25328.94122608  .00002184  00000+0  17510-3 0  9990
2 21422  82.4973 184.6530 0013921  56.4113 303.8437 14.99594002847492
SL-14 R/B               
1 21423U 91042B   25328.95393064  .00000553  00000+0  67179-4 0  9993
2 21423  82.4914 318.4038 0015894 221.4358 138.5652 14.81714731837567
ERS-1                   
1 21574U 91050A   25328.94094028  .00000380  00000+0  13620-3 0  9995
2 21574  98.7915 339.5501 0032536 151.4190 208.8789 14.39344751800669
ARIANE 40 R/B           
1 21610U 91050F   25328.89417689  .00000435  00000+0  14310-3 0  9990
2 21610  98.2189  19.9668 0003847  49.2764 310.8760 14.42791395803889
INTERCOSMOS 25          
1 21819U 91086A   25328.88462425  .00001190  00000+0  23376-3 0  9998
2 21819  82.6068  13.3722 1487503 342.8944  12.6683 12.11640795483998
SL-8 R/B                
1 21876U 92008B   25328.52051031  .00000137  00000+0  12497-3 0  9996
2 21876  82.9268 345.9996 0036026  69.4376  93.7262 13.75953187694959
SL-8 R/B                
1 21938U 92020B   25328.87075818  .00000085  00000+0  72411-4 0  9991
2 21938  82.9317 231.5850 0027819 229.0322 175.6386 13.75523620686725
USA 81                  
1 21949U 92023A   25328.87044495  .00000225  00000+0  75868-4 0  9998
2 21949  85.0097 191.8806 0002247  66.7836 293.3593 14.32317775 79785
COSMOS 2219             
1 22219U 92076A   25328.96905269 -.00000174  00000+0 -66584-4 0  9992
2 22219  71.0606 236.9783 0018479 352.1228   7.9601 14.14066685703574
SL-16 R/B               
1 22220U 92076B   25328.94775683  .00000262  00000+0  15431-3 0  9997
2 22220  71.0012  49.0093 0015105 257.1684 275.8590 14.16836984706998
COSMOS 2221             
1 22236U 92080A   25328.88871738  .00002711  00000+0  24110-3 0  9995
2 22236  82.5055  19.4095 0014649 178.6734 181.4529 14.95662650765125
SL-16 R/B               
1 22285U 92093B   25329.00561639 -.00000167  00000+0 -61105-4 0  9995
2 22285  71.0216 224.0216 0002048 124.9684 235.1631 14.15427753698343
