CCSDS_OMM_VERS = 2.0
CREATION_DATE  = 
ORIGINATOR     = 

OBJECT_NAME    = COSMOS 2151
OBJECT_ID      = 1991-042A
CENTER_NAME    = EARTH
REF_FRAME      = TEME
TIME_SYSTEM    = UTC
MEAN_ELEMENT_THEORY = SGP/SGP4

EPOCH          = 2025-11-24T22:35:21.933312
MEAN_MOTION    = 14.99594002
ECCENTRICITY   = .00139213
INCLINATION    = 82.4973
RA_OF_ASC_NODE = 184.6530
ARG_OF_PERICENTER = 56.4113
MEAN_ANOMALY   = 303.8437

EPHEMERIS_TYPE = 0
CLASSIFICATION_TYPE = U
NORAD_CAT_ID   = 21422
ELEMENT_SET_NO = 999
REV_AT_EPOCH   = 84749
BSTAR          = .17510465E-3
MEAN_MOTION_DOT = .2184E-4
MEAN_MOTION_DDOT = 0

CCSDS_OMM_VERS = 2.0
CREATION_DATE  = 
ORIGINATOR     = 

OBJECT_NAME    = SL-14 R/B
OBJECT_ID      = 1991-042B
CENTER_NAME    = EARTH
REF_FRAME      = TEME
TIME_SYSTEM    = UTC
MEAN_ELEMENT_THEORY = SGP/SGP4

EPOCH          = 2025-11-24T22:53:39.607296
MEAN_MOTION    = 14.81714731
ECCENTRICITY   = .00158948
INCLINATION    = 82.4914
RA_OF_ASC_NODE = 318.4038
ARG_OF_PERICENTER = 221.4358
MEAN_ANOMALY   = 138.5652

EPHEMERIS_TYPE = 0
CLASSIFICATION_TYPE = U
NORAD_CAT_ID   = 21423
ELEMENT_SET_NO = 999
REV_AT_EPOCH   = 83756
BSTAR          = .67179089E-4
MEAN_MOTION_DOT = .553E-5
MEAN_MOTION_DDOT = 0

CCSDS_OMM_VERS = 2.0
CREATION_DATE  = 
ORIGINATOR     = 

OBJECT_NAME    = ERS-1
OBJECT_ID      = 1991-050A
CENTER_NAME    = EARTH
REF_FRAME      = TEME
TIME_SYSTEM    = UTC
MEAN_ELEMENT_THEORY = SGP/SGP4

EPOCH          = 2025-11-24T22:34:57.240192
MEAN_MOTION    = 14.39344751
ECCENTRICITY   = .00325364
INCLINATION    = 98.7915
RA_OF_ASC_NODE = 339.5501
ARG_OF_PERICENTER = 151.4190
MEAN_ANOMALY   = 208.8789

EPHEMERIS_TYPE = 0
CLASSIFICATION_TYPE = U
NORAD_CAT_ID   = 21574
ELEMENT_SET_NO = 999
REV_AT_EPOCH   = 80066
BSTAR          = .13620228E-3
MEAN_MOTION_DOT = .38E-5
MEAN_MOTION_DDOT = 0

CCSDS_OMM_VERS = 2.0
CREATION_DATE  = 
ORIGINATOR     = 

OBJECT_NAME    = ARIANE 40 R/B
OBJECT_ID      = 1991-050F
CENTER_NAME    = EARTH
REF_FRAME      = TEME
TIME_SYSTEM    = UTC
MEAN_ELEMENT_THEORY = SGP/SGP4

EPOCH          = 2025-11-24T21:27:36.883296
MEAN_MOTION    = 14.42791395
ECCENTRICITY   = .00038474
INCLINATION    = 98.2189
RA_OF_ASC_NODE = 19.9668
ARG_OF_PERICENTER = 49.2764
MEAN_ANOMALY   = 310.8760

EPHEMERIS_TYPE = 0
CLASSIFICATION_TYPE = U
NORAD_CAT_ID   = 21610
ELEMENT_SET_NO = 999
REV_AT_EPOCH   = 80388
BSTAR          = .14309526E-3
MEAN_MOTION_DOT = .435E-5
MEAN_MOTION_DDOT = 0

CCSDS_OMM_VERS = 2.0
CREATION_DATE  = 
ORIGINATOR     = 

OBJECT_NAME    = INTERCOSMOS 25
OBJECT_ID      = 1991-086A
CENTER_NAME    = EARTH
REF_FRAME      = TEME
TIME_SYSTEM    = UTC
MEAN_ELEMENT_THEORY = SGP/SGP4

EPOCH          = 2025-11-24T21:13:51.535200
MEAN_MOTION    = 12.11640795
ECCENTRICITY   = .14875035
INCLINATION    = 82.6068
RA_OF_ASC_NODE = 13.3722
ARG_OF_PERICENTER = 342.8944
MEAN_ANOMALY   = 12.6683

EPHEMERIS_TYPE = 0
CLASSIFICATION_TYPE = U
NORAD_CAT_ID   = 21819
ELEMENT_SET_NO = 999
REV_AT_EPOCH   = 48399
BSTAR          = .23376282E-3
MEAN_MOTION_DOT = .119E-4
MEAN_MOTION_DDOT = 0

CCSDS_OMM_VERS = 2.0
CREATION_DATE  = 
ORIGINATOR     = 

OBJECT_NAME    = SL-8 R/B
OBJECT_ID      = 1992-008B
CENTER_NAME    = EARTH
REF_FRAME      = TEME
TIME_SYSTEM    = UTC
MEAN_ELEMENT_THEORY = SGP/SGP4

EPOCH          = 2025-11-24T12:29:32.090784
MEAN_MOTION    = 13.75953187
ECCENTRICITY   = .0036026
INCLINATION    = 82.9268
RA_OF_ASC_NODE = 345.9996
ARG_OF_PERICENTER = 69.4376
MEAN_ANOMALY   = 93.7262

EPHEMERIS_TYPE = 0
CLASSIFICATION_TYPE = U
NORAD_CAT_ID   = 21876
ELEMENT_SET_NO = 999
REV_AT_EPOCH   = 69495
BSTAR          = .12496773E-3
MEAN_MOTION_DOT = .137E-5
MEAN_MOTION_DDOT = 0

CCSDS_OMM_VERS = 2.0
CREATION_DATE  = 
ORIGINATOR     = 

OBJECT_NAME    = SL-8 R/B
OBJECT_ID      = 1992-020B
CENTER_NAME    = EARTH
REF_FRAME      = TEME
TIME_SYSTEM    = UTC
MEAN_ELEMENT_THEORY = SGP/SGP4

EPOCH          = 2025-11-24T20:53:53.506752
MEAN_MOTION    = 13.75523620
ECCENTRICITY   = .00278195
INCLINATION    = 82.9317
RA_OF_ASC_NODE = 231.5850
ARG_OF_PERICENTER = 229.0322
MEAN_ANOMALY   = 175.6386

EPHEMERIS_TYPE = 0
CLASSIFICATION_TYPE = U
NORAD_CAT_ID   = 21938
ELEMENT_SET_NO = 999
REV_AT_EPOCH   = 68672
BSTAR          = .72411088E-4
MEAN_MOTION_DOT = .85E-6
MEAN_MOTION_DDOT = 0

CCSDS_OMM_VERS = 2.0
CREATION_DATE  = 
ORIGINATOR     = 

OBJECT_NAME    = USA 81
OBJECT_ID      = 1992-023A
CENTER_NAME    = EARTH
REF_FRAME      = TEME
TIME_SYSTEM    = UTC
MEAN_ELEMENT_THEORY = SGP/SGP4

EPOCH          = 2025-11-24T20:53:26.443680
MEAN_MOTION    = 14.32317775
ECCENTRICITY   = .00022471
INCLINATION    = 85.0097
RA_OF_ASC_NODE = 191.8806
ARG_OF_PERICENTER = 66.7836
MEAN_ANOMALY   = 293.3593

EPHEMERIS_TYPE = 0
CLASSIFICATION_TYPE = U
NORAD_CAT_ID   = 21949
ELEMENT_SET_NO = 999
REV_AT_EPOCH   = 7978
BSTAR          = .75867755E-4
MEAN_MOTION_DOT = .225E-5
MEAN_MOTION_DDOT = 0

CCSDS_OMM_VERS = 2.0
CREATION_DATE  = 
ORIGINATOR     = 

OBJECT_NAME    = COSMOS 2219
OBJECT_ID      = 1992-076A
CENTER_NAME    = EARTH
REF_FRAME      = TEME
TIME_SYSTEM    = UTC
MEAN_ELEMENT_THEORY = SGP/SGP4

EPOCH          = 2025-11-24T23:15:26.152416
MEAN_MOTION    = 14.14066685
ECCENTRICITY   = .00184794
INCLINATION    = 71.0606
RA_OF_ASC_NODE = 236.9783
ARG_OF_PERICENTER = 352.1228
MEAN_ANOMALY   = 7.9601

EPHEMERIS_TYPE = 0
CLASSIFICATION_TYPE = U
NORAD_CAT_ID   = 22219
ELEMENT_SET_NO = 999
REV_AT_EPOCH   = 70357
BSTAR          = -.6658424E-4
MEAN_MOTION_DOT = -.174E-5
MEAN_MOTION_DDOT = 0

CCSDS_OMM_VERS = 2.0
CREATION_DATE  = 
ORIGINATOR     = 

OBJECT_NAME    = SL-16 R/B
OBJECT_ID      = 1992-076B
CENTER_NAME    = EARTH
REF_FRAME      = TEME
TIME_SYSTEM    = UTC
MEAN_ELEMENT_THEORY = SGP/SGP4

EPOCH          = 2025-11-24T22:44:46.190112
MEAN_MOTION    = 14.16836984
ECCENTRICITY   = .00151051
INCLINATION    = 71.0012
RA_OF_ASC_NODE = 49.0093
ARG_OF_PERICENTER = 257.1684
MEAN_ANOMALY   = 275.8590

EPHEMERIS_TYPE = 0
CLASSIFICATION_TYPE = U
NORAD_CAT_ID   = 22220
ELEMENT_SET_NO = 999
REV_AT_EPOCH   = 70699
BSTAR          = .15430847E-3
MEAN_MOTION_DOT = .262E-5
MEAN_MOTION_DDOT = 0

CCSDS_OMM_VERS = 2.0
CREATION_DATE  = 
ORIGINATOR     = 

OBJECT_NAME    = COSMOS 2221
OBJECT_ID      = 1992-080A
CENTER_NAME    = EARTH
REF_FRAME      = TEME
TIME_SYSTEM    = UTC
MEAN_ELEMENT_THEORY = SGP/SGP4

EPOCH          = 2025-11-24T21:19:45.181632
MEAN_MOTION    = 14.95662650
ECCENTRICITY   = .00146492
INCLINATION    = 82.5055
RA_OF_ASC_NODE = 19.4095
ARG_OF_PERICENTER = 178.6734
MEAN_ANOMALY   = 181.4529

EPHEMERIS_TYPE = 0
CLASSIFICATION_TYPE = U
NORAD_CAT_ID   = 22236
ELEMENT_SET_NO = 999
REV_AT_EPOCH   = 76512
BSTAR          = .24109747E-3
MEAN_MOTION_DOT = .2711E-4
MEAN_MOTION_DDOT = 0

CCSDS_OMM_VERS = 2.0
CREATION_DATE  = 
ORIGINATOR     = 

OBJECT_NAME    = SL-16 R/B
OBJECT_ID      = 1992-093B
CENTER_NAME    = EARTH
REF_FRAME      = TEME
TIME_SYSTEM    = UTC
MEAN_ELEMENT_THEORY = SGP/SGP4

EPOCH          = 2025-11-25T00:08:05.256096
MEAN_MOTION    = 14.15427753
ECCENTRICITY   = .00020488
INCLINATION    = 71.0216
RA_OF_ASC_NODE = 224.0216
ARG_OF_PERICENTER = 124.9684
MEAN_ANOMALY   = 235.1631

EPHEMERIS_TYPE = 0
CLASSIFICATION_TYPE = U
NORAD_CAT_ID   = 22285
ELEMENT_SET_NO = 999
REV_AT_EPOCH   = 69834
BSTAR          = -.61104793E-4
MEAN_MOTION_DOT = -.167E-5
MEAN_MOTION_DDOT = 0

